{
  "type": "FeatureCollection",
  "features": [
    {
      "type": "Feature",
      "properties": {
        "norad_id": 66892,
        "name": "STARLINK-35883",
        "group": "last-30-days",
        "lat": 42.320947791501084,
        "lon": 137.7753984987876,
        "alt_km": 403.96654475969535,
        "timestamp": "2025-12-27T10:28:57.516130+00:00",
        "meta_object_name": "STARLINK-35883",
        "meta_object_id": "2025-283Q",
        "meta_epoch": "2025-12-27T04:00:01.998720",
        "meta_mean_motion": 15.53406533,
        "meta_eccentricity": 0.0001185,
        "meta_inclination": 53.1605,
        "meta_ra_of_asc_node": 2.1276,
        "meta_arg_of_pericenter": 86.2921,
        "meta_mean_anomaly": 325.6944,
        "meta_ephemeris_type": 0,
        "meta_classification_type": "U",
        "meta_norad_cat_id": 66892,
        "meta_element_set_no": 999,
        "meta_rev_at_epoch": 468,
        "meta_bstar": -0.036179,
        "meta_mean_motion_dot": -0.02074604,
        "meta_mean_motion_ddot": 0,
        "tle_line1": "1 66892U 25283Q   25361.16668980 -.02074604  00000+0 -36179-1 0  9993",
        "tle_line2": "2 66892  53.1605   2.1276 0001185  86.2921 325.6944 15.53406533  4680"
      },
      "geometry": {
        "type": "Point",
        "coordinates": [
          137.7753984987876,
          42.320947791501084
        ]
      }
    },
    {
      "type": "Feature",
      "properties": {
        "norad_id": 66893,
        "name": "STARLINK-36033",
        "group": "last-30-days",
        "lat": 41.18016962646301,
        "lon": 139.8392877220181,
        "alt_km": 404.26468937943537,
        "timestamp": "2025-12-27T10:28:57.516140+00:00",
        "meta_object_name": "STARLINK-36033",
        "meta_object_id": "2025-283R",
        "meta_epoch": "2025-12-27T04:00:01.998720",
        "meta_mean_motion": 15.53401055,
        "meta_eccentricity": 0.0001065,
        "meta_inclination": 53.1603,
        "meta_ra_of_asc_node": 2.1232,
        "meta_arg_of_pericenter": 80.2101,
        "meta_mean_anomaly": 333.6946,
        "meta_ephemeris_type": 0,
        "meta_classification_type": "U",
        "meta_norad_cat_id": 66893,
        "meta_element_set_no": 999,
        "meta_rev_at_epoch": 474,
        "meta_bstar": -0.036002,
        "meta_mean_motion_dot": -0.02065091,
        "meta_mean_motion_ddot": 0,
        "tle_line1": "1 66893U 25283R   25361.16668980 -.02065091  00000+0 -36002-1 0  9999",
        "tle_line2": "2 66893  53.1603   2.1232 0001065  80.2101 333.6946 15.53401055  4744"
      },
      "geometry": {
        "type": "Point",
        "coordinates": [
          139.8392877220181,
          41.18016962646301
        ]
      }
    },
    {
      "type": "Feature",
      "properties": {
        "norad_id": 66894,
        "name": "STARLINK-35718",
        "group": "last-30-days",
        "lat": 40.0049467617092,
        "lon": 141.8307007150375,
        "alt_km": 404.40631358757946,
        "timestamp": "2025-12-27T10:28:57.516150+00:00",
        "meta_object_name": "STARLINK-35718",
        "meta_object_id": "2025-283S",
        "meta_epoch": "2025-12-27T04:00:01.998720",
        "meta_mean_motion": 15.53388666,
        "meta_eccentricity": 0.0001212,
        "meta_inclination": 53.1601,
        "meta_ra_of_asc_node": 2.1203,
        "meta_arg_of_pericenter": 78.2301,
        "meta_mean_anomaly": 337.592,
        "meta_ephemeris_type": 0,
        "meta_classification_type": "U",
        "meta_norad_cat_id": 66894,
        "meta_element_set_no": 999,
        "meta_rev_at_epoch": 474,
        "meta_bstar": -0.035592,
        "meta_mean_motion_dot": -0.02043401,
        "meta_mean_motion_ddot": 0,
        "tle_line1": "1 66894U 25283S   25361.16668980 -.02043401  00000+0 -35592-1 0  9994",
        "tle_line2": "2 66894  53.1601   2.1203 0001212  78.2301 337.5920 15.53388666  4741"
      },
      "geometry": {
        "type": "Point",
        "coordinates": [
          141.8307007150375,
          40.0049467617092
        ]
      }
    },
    {
      "type": "Feature",
      "properties": {
        "norad_id": 66895,
        "name": "STARLINK-35971",
        "group": "last-30-days",
        "lat": 37.553127300249294,
        "lon": 145.61408852050772,
        "alt_km": 404.77970090787403,
        "timestamp": "2025-12-27T10:28:57.516162+00:00",
        "meta_object_name": "STARLINK-35971",
        "meta_object_id": "2025-283T",
        "meta_epoch": "2025-12-27T04:00:01.998720",
        "meta_mean_motion": 15.53398279,
        "meta_eccentricity": 0.0001138,
        "meta_inclination": 53.1595,
        "meta_ra_of_asc_node": 2.1102,
        "meta_arg_of_pericenter": 88.5853,
        "meta_mean_anomaly": 331.0693,
        "meta_ephemeris_type": 0,
        "meta_classification_type": "U",
        "meta_norad_cat_id": 66895,
        "meta_element_set_no": 999,
        "meta_rev_at_epoch": 474,
        "meta_bstar": -0.03588,
        "meta_mean_motion_dot": -0.02058747,
        "meta_mean_motion_ddot": 0,
        "tle_line1": "1 66895U 25283T   25361.16668980 -.02058747  00000+0 -35880-1 0  9994",
        "tle_line2": "2 66895  53.1595   2.1102 0001138  88.5853 331.0693 15.53398279  4742"
      },
      "geometry": {
        "type": "Point",
        "coordinates": [
          145.61408852050772,
          37.553127300249294
        ]
      }
    },
    {
      "type": "Feature",
      "properties": {
        "norad_id": 66896,
        "name": "STARLINK-35791",
        "group": "last-30-days",
        "lat": 38.79481552667028,
        "lon": 143.75391498164163,
        "alt_km": 404.72911893285163,
        "timestamp": "2025-12-27T10:28:57.516173+00:00",
        "meta_object_name": "STARLINK-35791",
        "meta_object_id": "2025-283U",
        "meta_epoch": "2025-12-27T04:00:01.998720",
        "meta_mean_motion": 15.53395705,
        "meta_eccentricity": 0.0001046,
        "meta_inclination": 53.1599,
        "meta_ra_of_asc_node": 2.1147,
        "meta_arg_of_pericenter": 72.7624,
        "meta_mean_anomaly": 344.9735,
        "meta_ephemeris_type": 0,
        "meta_classification_type": "U",
        "meta_norad_cat_id": 66896,
        "meta_element_set_no": 999,
        "meta_rev_at_epoch": 474,
        "meta_bstar": -0.035756,
        "meta_mean_motion_dot": -0.0205216,
        "meta_mean_motion_ddot": 0,
        "tle_line1": "1 66896U 25283U   25361.16668980 -.02052160  00000+0 -35756-1 0  9990",
        "tle_line2": "2 66896  53.1599   2.1147 0001046  72.7624 344.9735 15.53395705  4746"
      },
      "geometry": {
        "type": "Point",
        "coordinates": [
          143.75391498164163,
          38.79481552667028
        ]
      }
    },
    {
      "type": "Feature",
      "properties": {
        "norad_id": 66897,
        "name": "STARLINK-36079",
        "group": "last-30-days",
        "lat": 36.28593806492086,
        "lon": 147.41049378817453,
        "alt_km": 405.1220849688152,
        "timestamp": "2025-12-27T10:28:57.516185+00:00",
        "meta_object_name": "STARLINK-36079",
        "meta_object_id": "2025-283V",
        "meta_epoch": "2025-12-27T04:00:01.998720",
        "meta_mean_motion": 15.53393837,
        "meta_eccentricity": 9.46e-05,
        "meta_inclination": 53.1597,
        "meta_ra_of_asc_node": 2.1068,
        "meta_arg_of_pericenter": 87.5563,
        "meta_mean_anomaly": 334.0153,
        "meta_ephemeris_type": 0,
        "meta_classification_type": "U",
        "meta_norad_cat_id": 66897,
        "meta_element_set_no": 999,
        "meta_rev_at_epoch": 474,
        "meta_bstar": -0.03572,
        "meta_mean_motion_dot": -0.02050104,
        "meta_mean_motion_ddot": 0,
        "tle_line1": "1 66897U 25283V   25361.16668980 -.02050104  00000+0 -35720-1 0  9998",
        "tle_line2": "2 66897  53.1597   2.1068 0000946  87.5563 334.0153 15.53393837  4749"
      },
      "geometry": {
        "type": "Point",
        "coordinates": [
          147.41049378817453,
          36.28593806492086
        ]
      }
    },
    {
      "type": "Feature",
      "properties": {
        "norad_id": 66898,
        "name": "STARLINK-36065",
        "group": "last-30-days",
        "lat": 34.98969297274428,
        "lon": 149.1515240104813,
        "alt_km": 405.3463021099551,
        "timestamp": "2025-12-27T10:28:57.516198+00:00",
        "meta_object_name": "STARLINK-36065",
        "meta_object_id": "2025-283W",
        "meta_epoch": "2025-12-27T04:00:01.998720",
        "meta_mean_motion": 15.53396308,
        "meta_eccentricity": 0.000104,
        "meta_inclination": 53.1598,
        "meta_ra_of_asc_node": 2.1024,
        "meta_arg_of_pericenter": 78.7754,
        "meta_mean_anomaly": 344.713,
        "meta_ephemeris_type": 0,
        "meta_classification_type": "U",
        "meta_norad_cat_id": 66898,
        "meta_element_set_no": 999,
        "meta_rev_at_epoch": 474,
        "meta_bstar": -0.03581,
        "meta_mean_motion_dot": -0.02054972,
        "meta_mean_motion_ddot": 0,
        "tle_line1": "1 66898U 25283W   25361.16668980 -.02054972  00000+0 -35810-1 0  9996",
        "tle_line2": "2 66898  53.1598   2.1024 0001040  78.7754 344.7130 15.53396308  4742"
      },
      "geometry": {
        "type": "Point",
        "coordinates": [
          149.1515240104813,
          34.98969297274428
        ]
      }
    }
  ]
}